IRIDE FM4               
1 66698U 25276AJ  26068.76071646  .00008403  00000+0  40963-3 0  9995
2 66698  97.4251 143.9634 0003872  14.8227 345.3120 15.18565498 15320
TRANSPORTER-15 OBJECT CX
1 66759U 25276CX  26068.76139911  .00008872  00000+0  41936-3 0  9994
2 66759  97.4237 144.0993 0000189  69.6860 290.4395 15.19627935 15332
