[{"OBJECT_NAME":"IRIDE FM4","OBJECT_ID":"2025-276AJ","EPOCH":"2026-03-09T18:15:25.902144","MEAN_MOTION":15.18565498,"ECCENTRICITY":0.00038717,"INCLINATION":97.4251,"RA_OF_ASC_NODE":143.9634,"ARG_OF_PERICENTER":14.8227,"MEAN_ANOMALY":345.312,"EPHEMERIS_TYPE":0,"CLASSIFICATION_TYPE":"U","NORAD_CAT_ID":66698,"ELEMENT_SET_NO":999,"REV_AT_EPOCH":1532,"BSTAR":0.00040962918,"MEAN_MOTION_DOT":8.403e-5,"MEAN_MOTION_DDOT":0},{"OBJECT_NAME":"TRANSPORTER-15 OBJECT CX","OBJECT_ID":"2025-276CX","EPOCH":"2026-03-09T18:16:24.883104","MEAN_MOTION":15.19627935,"ECCENTRICITY":1.891e-5,"INCLINATION":97.4237,"RA_OF_ASC_NODE":144.0993,"ARG_OF_PERICENTER":69.686,"MEAN_ANOMALY":290.4395,"EPHEMERIS_TYPE":0,"CLASSIFICATION_TYPE":"U","NORAD_CAT_ID":66759,"ELEMENT_SET_NO":999,"REV_AT_EPOCH":1533,"BSTAR":0.00041936127,"MEAN_MOTION_DOT":8.872e-5,"MEAN_MOTION_DDOT":0}]
